NORAD_CAT_ID,OBJECT_NAME,OBJECT_TYPE,EPOCH,MEAN_MOTION,ECCENTRICITY,INCLINATION,RA_OF_ASC_NODE,ARG_OF_PERICENTER,MEAN_ANOMALY,BSTAR,MEAN_MOTION_DOT,MEAN_MOTION_DDOT,TLE_LINE0,TLE_LINE1,TLE_LINE2,SEMIMAJOR_AXIS,PERIOD,APOGEE,PERIGEE,DECAYED
53254.0,STARLINK-4134,PAYLOAD,2022-08-08 06:00:00,15.73203962,0.0001971,53.2193,330.511,320.0466,237.6939,0.00052684,0.00073987,0.0,0 STARLINK-4134,1 53254U 22086N   22220.25001157  .00073987  00000-0  52684-3 0  9998,2 53254  53.2193 330.5110 0001971 320.0466 237.6939 15.73203962  2948,6727.884,91.533,351.075,348.423,0.0
53254.0,STARLINK-4134,PAYLOAD,2022-08-08 12:47:10,15.73269144,0.0002114,53.2198,329.1126,323.969,36.1188,0.00024844,0.00034494,0.0,0 STARLINK-4134,1 53254U 22086N   22220.53276590  .00034494  00000-0  24844-3 0  9991,2 53254  53.2198 329.1126 0002114 323.9690  36.1188 15.73269144  3195,6727.698,91.529,350.985,348.141,0.0
53254.0,STARLINK-4134,PAYLOAD,2022-08-08 20:00:01,15.73273668,0.0002129,53.2194,327.6264,336.6928,286.8529,-0.00066929,-0.00093816,0.0,0 STARLINK-4134,1 53254U 22086N   22220.83335648 -.00093816  00000-0 -66929-3 0  9999,2 53254  53.2194 327.6264 0002129 336.6928 286.8529 15.73273668  3030,6727.685,91.529,350.982,348.11800000000005,0.0
53254.0,STARLINK-4134,PAYLOAD,2022-08-08 22:00:00,15.73277861,0.0002068,53.2196,327.2135,339.1733,36.5531,-0.00099604,-0.00138606,0.0,0 STARLINK-4134,1 53254U 22086N   22220.91667824 -.00138606  00000-0 -99604-3 0  9995,2 53254  53.2196 327.2135 0002068 339.1733  36.5531 15.73277861  1309,6727.6730000000025,91.529,350.92900000000014,348.147,0.0
53254.0,STARLINK-4134,PAYLOAD,2022-08-09 14:00:01,15.73146319,0.0002091,53.2201,323.9152,2.9471,190.6087,-0.00051145,-0.00071634,0.0,0 STARLINK-4134,1 53254U 22086N   22221.58334491 -.00071634  00000-0 -51145-3 0  9995,2 53254  53.2201 323.9152 0002091   2.9471 190.6087 15.73146319  1309,6728.0480000000025,91.536,351.32,348.506,0.0
53254.0,STARLINK-4134,PAYLOAD,2022-08-09 22:00:00,15.73110637,0.0002129,53.2197,322.2654,5.6633,276.7341,9.5029e-05,0.00012686,0.0,0 STARLINK-4134,1 53254U 22086N   22221.91667824  .00012686  00000-0  95029-4 0  9991,2 53254  53.2197 322.2654 0002129   5.6633 276.7341 15.73110637  3208,6728.15,91.538,351.44699999999995,348.583,0.0
53254.0,STARLINK-4134,PAYLOAD,2022-08-10 14:00:01,15.73150732,0.0002234999999999,53.2198,318.9682,7.794,92.2762,0.00022446,0.00030932,0.0,0 STARLINK-4134,1 53254U 22086N   22222.58334491  .00030932  00000-0  22446-3 0  9992,2 53254  53.2198 318.9682 0002235   7.7940  92.2762 15.73150732  1301,6728.036,91.536,351.404,348.397,0.0
53254.0,STARLINK-4134,PAYLOAD,2022-08-10 22:00:00,15.73206911,0.0002266,53.2199,317.3181,7.3792,181.5789,2.2887e-05,2.593e-05,0.0,0 STARLINK-4134,1 53254U 22086N   22222.91667824  .00002593  00000-0  22887-4 0  9990,2 53254  53.2199 317.3181 0002266   7.3792 181.5789 15.73206911  1306,6727.875,91.533,351.265,348.216,0.0
53254.0,STARLINK-4134,PAYLOAD,2022-08-11 14:00:01,15.73264156,0.0002508,53.2202,314.0203,13.4548,353.4013,-0.00050075,-0.00070517,0.0,0 STARLINK-4134,1 53254U 22086N   22223.58334491 -.00070517  00000-0 -50075-3 0  9997,2 53254  53.2202 314.0203 0002508  13.4548 353.4013 15.73264156  1301,6727.712,91.529,351.265,347.89,0.0
53254.0,STARLINK-4134,PAYLOAD,2022-08-11 22:00:00,15.73225476,0.0002508,53.2197,312.3699,17.1172,78.7124,-6.4137e-05,-9.624e-05,0.0,0 STARLINK-4134,1 53254U 22086N   22223.91667824 -.00009624  00000-0 -64137-4 0  9999,2 53254  53.2197 312.3699 0002508  17.1172  78.7124 15.73225476  3526,6727.823,91.532,351.375,348.0,0.0
53254.0,STARLINK-4134,PAYLOAD,2022-08-12 04:00:00,15.7325481,0.0002427,53.2196,311.1319,20.7686,51.8065,-0.00027113,-0.00038594,0.0,0 STARLINK-4134,1 53254U 22086N   22224.16667824 -.00038594  00000-0 -27113-3 0  9997,2 53254  53.2196 311.1319 0002427  20.7686  51.8065 15.73254810  3565,6727.739000000001,91.53,351.237,347.971,0.0
53254.0,STARLINK-4134,PAYLOAD,2022-08-12 14:00:01,15.73242689,0.0002723999999999,53.2195,309.0725,21.1905,252.6146,-1.842e-05,-3.212e-05,0.0,0 STARLINK-4134,1 53254U 22086N   22224.58334491 -.00003212  00000-0 -18420-4 0  9995,2 53254  53.2195 309.0725 0002724  21.1905 252.6146 15.73242689  3629,6727.773,91.531,351.471,347.806,0.0
53254.0,STARLINK-4134,PAYLOAD,2022-08-12 22:00:01,15.73235564,0.0002593,53.2195,307.4217,17.6519,345.1969,-0.00021468,-0.00030692,0.0,0 STARLINK-4134,1 53254U 22086N   22224.91668981 -.00030692  00000-0 -21468-3 0  9993,2 53254  53.2195 307.4217 0002593  17.6519 345.1969 15.73235564  1300,6727.794,91.531,351.403,347.914,0.0
53254.0,STARLINK-4134,PAYLOAD,2022-08-13 04:00:00,15.73221965,0.0002503,53.2196,306.1835,17.5706,321.925,-0.00039504,-0.00055758,0.0,0 STARLINK-4134,1 53254U 22086N   22225.16667824 -.00055758  00000-0 -39504-3 0  9996,2 53254  53.2196 306.1835 0002503  17.5706 321.9250 15.73221965  3713,6727.833000000001,91.532,351.38199999999995,348.014,0.0
53254.0,STARLINK-4134,PAYLOAD,2022-08-13 14:00:01,15.7311554,0.0002917,53.2197,304.1242,19.8715,160.7811,0.00039966,0.00055646,0.0,0 STARLINK-4134,1 53254U 22086N   22225.58334491  .00055646  00000-0  39966-3 0  9999,2 53254  53.2197 304.1242 0002917  19.8715 160.7811 15.73115540  1304,6728.136,91.538,351.964,348.038,0.0
53254.0,STARLINK-4134,PAYLOAD,2022-08-13 22:00:00,15.73167737,0.00028,53.2192,302.4736,20.4358,249.0642,2.8572e-05,3.384e-05,0.0,0 STARLINK-4134,1 53254U 22086N   22225.91667824  .00003384  00000-0  28572-4 0  9999,2 53254  53.2192 302.4736 0002800  20.4358 249.0642 15.73167737  1308,6727.986999999999,91.535,351.736,347.968,0.0
53254.0,STARLINK-4134,PAYLOAD,2022-08-14 06:00:02,15.73200586,0.0002677,53.2184,300.8202,22.2278,336.2224,3.7226e-05,4.606e-05,0.0,0 STARLINK-4134,1 53254U 22086N   22226.25002315  .00004606  00000-0  37226-4 0  9999,2 53254  53.2184 300.8202 0002677  22.2278 336.2224 15.73200586  3882,6727.894,91.533,351.56,347.957,0.0
53254.0,STARLINK-4134,PAYLOAD,2022-08-14 14:00:01,15.73229928,0.0002988,53.2189,299.1765,19.65,67.6976,-6.1865e-05,-9.309e-05,0.0,0 STARLINK-4134,1 53254U 22086N   22226.58334491 -.00009309  00000-0 -61865-4 0  9991,2 53254  53.2189 299.1765 0002988  19.6500  67.6976 15.73229928  1309,6727.81,91.531,351.685,347.665,0.0
53254.0,STARLINK-4134,PAYLOAD,2022-08-14 22:00:00,15.73216077,0.0002813,53.2189,297.5253,16.3285,159.9932,-1.2843e-05,-2.426e-05,0.0,0 STARLINK-4134,1 53254U 22086N   22226.91667824 -.00002426  00000-0 -12843-4 0  9992,2 53254  53.2189 297.5253 0002813  16.3285 159.9932 15.73216077  1302,6727.849,91.532,351.607,347.82199999999995,0.0
53254.0,STARLINK-4134,PAYLOAD,2022-08-15 14:00:01,15.73174974,0.0003058999999999,53.2191,294.2279,13.1809,340.9925,0.0002309,0.00031877,0.0,0 STARLINK-4134,1 53254U 22086N   22227.58334491  .00031877  00000-0  23090-3 0  9992,2 53254  53.2191 294.2279 0003059  13.1809 340.9925 15.73174974  4099,6727.967,91.535,351.89,347.773,0.0
53254.0,STARLINK-4134,PAYLOAD,2022-08-15 22:00:00,15.7318164,0.000286,53.2188,292.5768,10.489,72.6105,-0.00013716,-0.00019815,0.0,0 STARLINK-4134,1 53254U 22086N   22227.91667824 -.00019815  00000-0 -13716-3 0  9992,2 53254  53.2188 292.5768 0002860  10.4890  72.6105 15.73181640  1306,6727.948,91.534,351.737,347.88800000000015,0.0
53254.0,STARLINK-4134,PAYLOAD,2022-08-16 06:00:02,15.73188207,0.000283,53.2188,290.9274,11.9842,160.0727,0.00019515,0.00026844,0.0,0 STARLINK-4134,1 53254U 22086N   22228.25002315  .00026844  00000-0  19515-3 0  9999,2 53254  53.2188 290.9274 0002830  11.9842 160.0727 15.73188207  4200,6727.929,91.534,351.6980000000001,347.89,0.0
53254.0,STARLINK-4134,PAYLOAD,2022-08-16 14:00:01,15.73204172,0.0003123999999999,53.2185,289.2798,9.7924,251.1295,0.00011704,0.0001584,0.0,0 STARLINK-4134,1 53254U 22086N   22228.58334491  .00015840  00000-0  11704-3 0  9994,2 53254  53.2185 289.2798 0003124   9.7924 251.1295 15.73204172  1302,6727.8830000000025,91.533,351.85,347.646,0.0
53254.0,STARLINK-4134,PAYLOAD,2022-08-16 22:00:00,15.73191244,0.0002925,53.2186,287.6283,8.2791,341.6026,7.6271e-05,0.00010092,0.0,0 STARLINK-4134,1 53254U 22086N   22228.91667824  .00010092  00000-0  76271-4 0  9995,2 53254  53.2186 287.6283 0002925   8.2791 341.6026 15.73191244  1300,6727.92,91.534,351.75300000000016,347.81699999999995,0.0
53254.0,STARLINK-4134,PAYLOAD,2022-08-17 06:00:02,15.73222979,0.0002964,53.2189,285.9788,9.1168,69.7445,0.00014204,0.00019381,0.0,0 STARLINK-4134,1 53254U 22086N   22229.25002315  .00019381  00000-0  14204-3 0  9998,2 53254  53.2189 285.9788 0002964   9.1168  69.7445 15.73222979  4367,6727.83,91.532,351.689,347.701,0.0
53254.0,STARLINK-4134,PAYLOAD,2022-08-17 14:00:01,15.73212917,0.0003269,53.2189,284.3311,6.669,161.0808,-6.8184e-05,-0.00010189,0.0,0 STARLINK-4134,1 53254U 22086N   22229.58334491 -.00010189  00000-0 -68184-4 0  9993,2 53254  53.2189 284.3311 0003269   6.6690 161.0808 15.73212917  4419,6727.858,91.532,351.923,347.524,0.0
53254.0,STARLINK-4134,PAYLOAD,2022-08-18 14:00:01,15.73193454,0.0003398,53.2184,279.3827,11.2352,63.385,0.00062834,0.0008849,0.0,0 STARLINK-4134,1 53254U 22086N   22230.58334491  .00088490  00000-0  62834-3 0  9998,2 53254  53.2184 279.3827 0003398  11.2352  63.3850 15.73193454  1300,6727.9140000000025,91.534,352.065,347.49300000000005,0.0
53254.0,STARLINK-4134,PAYLOAD,2022-08-18 22:00:00,15.73230777,0.0003191999999999,53.2186,277.7312,9.7619,153.826,-8.802e-05,-0.00012977,0.0,0 STARLINK-4134,1 53254U 22086N   22230.91667824 -.00012977  00000-0 -88020-4 0  9999,2 53254  53.2186 277.7312 0003192   9.7619 153.8260 15.73230777  4621,6727.807,91.531,351.82,347.525,0.0
53254.0,STARLINK-4134,PAYLOAD,2022-08-19 14:00:01,15.73125587,0.0003526,53.2187,274.4342,11.0553,330.4417,0.00053991,0.00075612,0.0,0 STARLINK-4134,1 53254U 22086N   22231.58334491  .00075612  00000-0  53991-3 0  9995,2 53254  53.2187 274.4342 0003526  11.0553 330.4417 15.73125587  4723,6728.107,91.538,352.345,347.6,0.0
